[{"OBJECT_NAME":"STARLINK-5530","OBJECT_ID":"2023-064AY","EPOCH":"2026-03-09T11:49:21.916128","MEAN_MOTION":14.98614426,"ECCENTRICITY":0.00029708,"INCLINATION":69.9976,"RA_OF_ASC_NODE":104.9316,"ARG_OF_PERICENTER":70.895,"MEAN_ANOMALY":289.2531,"EPHEMERIS_TYPE":0,"CLASSIFICATION_TYPE":"U","NORAD_CAT_ID":56494,"ELEMENT_SET_NO":999,"REV_AT_EPOCH":15619,"BSTAR":0.0020351993,"MEAN_MOTION_DOT":0.00024455,"MEAN_MOTION_DDOT":0},{"OBJECT_NAME":"FENGYUN 1C DEB","OBJECT_ID":"1999-025CBA","EPOCH":"2026-03-08T12:23:36.052800","MEAN_MOTION":14.69215885,"ECCENTRICITY":0.01503921,"INCLINATION":98.6639,"RA_OF_ASC_NODE":327.5015,"ARG_OF_PERICENTER":276.1156,"MEAN_ANOMALY":208.7526,"EPHEMERIS_TYPE":0,"CLASSIFICATION_TYPE":"U","NORAD_CAT_ID":31644,"ELEMENT_SET_NO":999,"REV_AT_EPOCH":72303,"BSTAR":0.0014660456,"MEAN_MOTION_DOT":0.00010219,"MEAN_MOTION_DDOT":0}]
